{"fetched_at":"2026-03-29T16:36:15Z","count":15609,"tles":[{"name":"STARLINK-36043","line1":"1 66901U 25283Z   26087.82778972  .00023880  00000+0  81608-3 0  9991","line2":"2 66901  53.1603 295.3137 0000832 109.2294 250.8797 15.30188178 18775","category":"Starlink"}]}